BEESAT-4                
1 41619U 16040W   22244.60068183  .00012265  00000+0  38873-3 0  9995
2 41619  97.2098 293.2608 0008903 192.4538 167.6486 15.32816875332383
CAS-2T & KS-1Q          
1 41847U 16066G   22244.77801255  .00000230  00000+0  44994-4 0  9990
2 41847  98.5449 309.3446 0363037 341.7421  17.1007 14.38705013305329
NAYIF-1 (EO-88)         
1 42017U 17008BX  22244.41144225  .00012070  00000+0  33950-3 0  9999
2 42017  97.2621 309.5079 0003736 352.4304   7.6883 15.36629210308734
ZHUHAI-1 02 (CAS-4B)    
1 42759U 17034B   22244.93296747  .00001786  00000+0  11403-3 0  9996
2 42759  43.0177 271.0035 0008740  42.8523  24.2819 15.12334640287936
ZHUHAI-1 01 (CAS-4A)    
1 42761U 17034D   22244.96563248  .00001616  00000+0  10419-3 0  9993
2 42761  43.0170 269.5578 0008884  46.6366  27.4581 15.12416986287948
MAX VALIER SAT          
1 42778U 17036P   22244.83701656  .00004831  00000+0  17927-3 0  9999
2 42778  97.1992 283.3406 0012107  61.5450 298.7008 15.27976268288561
RADFXSAT (FOX-1B)       
1 43017U 17073E   22244.68527316  .00003003  00000+0  22915-3 0  9992
2 43017  97.6637 135.7458 0245637 298.3289  59.3345 14.81895968258403
FOX-1D (AO-92)          
1 43137U 18004AC  22244.68113670  .00009196  00000+0  31336-3 0  9990
2 43137  97.3633 319.1966 0009064  93.3896 266.8382 15.30561723258006
DIWATA-2B               
1 43678U 18084H   22244.69132336  .00000681  00000+0  72504-4 0  9992
2 43678  97.9815  18.8984 0010722  40.4872 319.7137 14.92275313209227
ES'HAIL 2               
1 43700U 18090A   22244.73358896  .00000146  00000+0  00000+0 0  9994
2 43700   0.0172 132.2451 0002019  62.1082  76.3871  1.00272565 13795
FOX-1CLIFF (AO-95)      
1 43770U 18099N   22244.40988923  .00001495  00000+0  13556-3 0  9996
2 43770  97.6155 308.7794 0014756  27.6431 332.5572 14.96726112204372
ITASAT 1                
1 43786U 18099AE  22244.59734972  .00002009  00000+0  17998-3 0  9992
2 43786  97.6178 309.9204 0014993  19.7876 340.3924 14.96831462204442
JY1SAT (JO-97)          
1 43803U 18099AX  22244.45462171  .00002151  00000+0  18966-3 0  9990
2 43803  97.6135 309.5604 0014628  18.5098 341.6654 14.97388358204449
UWE-4                   
1 43880U 18111E   22244.73326648  .00001991  00000+0  17121-3 0  9992
2 43880  97.6593 149.7035 0012710  67.0478 293.2085 14.98471537201120
NEXUS (FO-99)           
1 43937U 19003F   22244.35466610  .00008275  00000+0  26736-3 0  9992
2 43937  97.1257 274.8117 0018166 238.2231 121.7242 15.32181519201594
PSAT2 (NO-104)          
1 44354U 19036R   22244.63059518  .00064144 -50853-5  49966-3 0  9993
2 44354  28.5242   7.2963 0206218 114.1041 248.1275 15.46892499176463
JAISAT-1                
1 44419U 19038F   22244.84470681  .00004301  00000+0  21255-3 0  9990
2 44419  97.6426 215.6630 0017404 222.4863 137.5024 15.18277051174645
DUCHIFAT-3              
1 44854U 19089C   22244.72660710  .00002043  00000+0  16116-3 0  9991
2 44854  36.9678   8.0223 0006774 113.4840 246.6627 15.01468473149406
CAS-6 (TIANQIN 1)       
1 44881U 19093C   22244.81795535  .00000249  00000+0  38263-4 0  9994
2 44881  97.8900 322.9229 0013820 301.0443  58.9408 14.81795780146081
RS-44 & BREEZE-KM R/B   
1 44909U 19096E   22244.80995565  .00000039  00000+0  10516-3 0  9999
2 44909  82.5249 179.5543 0217975 140.9633 220.7430 12.79714510125271
ORBITAL FACTORY 2 (OF-2)
1 45113U 19071C   22244.46070967  .00024674  00000+0  45790-3 0  9995
2 45113  51.6380  44.4395 0008503  94.5796 265.6164 15.48762576145140
HUSKYSAT-1 (HO-107)     
1 45119U 19071J   22244.45752889  .00021054  00000+0  41105-3 0  9995
2 45119  51.6380  45.1368 0008592  89.8722 270.3250 15.47400116145123
BY70-2                  
1 45857U 20042B   22244.81364435  .00003281  00000+0  43474-3 0  9993
2 45857  97.9534 320.9567 0009688 221.2168 138.8336 14.80538793116753
SALSAT                  
1 46495U 20068K   22244.84059473  .00001473  00000+0  10866-3 0  9996
2 46495  97.7332 186.1905 0017082  24.5567 335.6469 15.04768803105675
BY70-3                  
1 46839U 20079N   22244.81923898  .00017226  00000+0  36926-3 0  9996
2 46839  97.1928 316.0404 0006149  67.0354  43.4428 15.44790217102021
RADFXSAT-2 (AO-109)     
1 47311U 21002C   22244.87724177  .00005175  00000+0  20641-3 0  9991
2 47311  60.6843  74.3325 0029878  30.7369 329.5461 15.26279187 90121
UVSQ-SAT                
1 47438U 21006AB  22244.57900319  .00005557  00000+0  28901-3 0  9997
2 47438  97.4304 302.0368 0011918  19.0820 341.0858 15.16394807 88815
DIY-1 (ARDUIQUBE)       
1 47963U 21022AH  22244.46152929  .00012454  00000+0  66180-3 0  9997
2 47963  97.5228 145.0127 0014341 224.8597 135.1477 15.15348472 78456
XW-3 (CAS-9)            
1 50466U 21131B   22244.82324227  .00000016  00000+0  19676-4 0  9992
2 50466  98.5771 322.0297 0003316 281.3403  78.7412 14.38517489 35893
TEVEL-3                 
1 50988U 22002E   22244.86241813  .00004368  00000+0  23582-3 0  9996
2 50988  97.4758 310.5881 0010465 152.4278 317.7012 15.15207157 34982
TEVEL-8                 
1 50989U 22002F   22244.87201050  .00004180  00000+0  22617-3 0  9997
2 50989  97.4772 310.6249 0010476 150.9060 329.2819 15.15152807 34986
TEVEL-5                 
1 50998U 22002Q   22244.93687475  .00004548  00000+0  24189-3 0  9997
2 50998  97.4756 310.7994 0012066 148.3628  27.4073 15.15702561 35005
TEVEL-6                 
1 50999U 22002R   22244.85877118  .00004552  00000+0  24205-3 0  9998
2 50999  97.4752 310.7216 0012024 148.1347 324.8103 15.15706653 34990
TEVEL-1                 
1 51013U 22002AF  22244.86846131  .00004269  00000+0  23076-3 0  9998
2 51013  97.4761 310.5720 0010248 152.0584 332.1288 15.15180284 34980
TEVEL-7                 
1 51062U 22002CG  22244.87375917  .00004166  00000+0  22549-3 0  9992
2 51062  97.4769 310.6106 0010405 150.9455 329.1847 15.15144762 34988
TEVEL-4                 
1 51063U 22002CH  22244.87475852  .00004135  00000+0  22389-3 0  9990
2 51063  97.4773 310.6089 0010458 150.7939 329.8851 15.15135112 34988
TEVEL-2                 
1 51069U 22002CP  22244.94175911  .00004348  00000+0  23480-3 0  9996
2 51069  97.4755 310.6519 0010458 151.3124  23.8019 15.15200420 34998
YUZGU 9 (RS3S)          
1 53308U 98067TT  22244.67689233  .00034337  00000+0  55015-3 0  9995
2 53308  51.6416 317.2415 0000899 144.8207 215.2842 15.52764482  6597
YUZGU 7 (RS1S)          
1 53309U 98067TU  22244.67567520  .00032957  00000+0  52692-3 0  9994
2 53309  51.6413 317.2315 0001237 195.2696 164.8257 15.52844284  6546
YUZGU 11 (RS5S)         
1 53310U 98067TV  22244.67648879  .00034483  00000+0  55269-3 0  9992
2 53310  51.6417 317.2394 0000954 199.7780 160.3174 15.52752291  6575
YUZGU 12 (RS6S)         
1 53311U 98067TW  22244.80179949  .00030168  00000+0  48058-3 0  9999
2 53311  51.6412 316.5737 0000941 116.4114 243.6973 15.52991630  6616
TSIOLKOVSKY-RYAZAN 1 (*)
1 53312U 98067TX  22244.67423983  .00032132  00000+0  51300-3 0  9992
2 53312  51.6417 317.2225 0001407 202.0760 158.0169 15.52896386  6538
TSIOLKOVSKY-RYAZAN 2 (*)
1 53313U 98067TY  22244.67306316  .00031329  00000+0  49978-3 0  9998
2 53313  51.6416 317.2152 0001004 218.0764 142.0155 15.52932366  6583
YUZGU 10 (RS4S)         
1 53321U 98067TZ  22244.67737886  .00031519  00000+0  50573-3 0  9991
2 53321  51.6419 317.2457 0000874 168.1458 191.9553 15.52767602  6586
RS29S (SXC3-2110 CYCLO*)
1 53373U 22096D   22244.81747353  .00005439  00000+0  22303-3 0  9995
2 53373  97.4347 146.1089 0003681  92.5642 353.9759 15.24668085  3584
RS32S (SXC3-212 MONITO*)
1 53374U 22096E   22244.81547803  .00005532  00000+0  22606-3 0  9994
2 53374  97.4340 146.1100 0003818  89.4858 355.0431 15.24776049  3588
RS34S (SXC3-218 KUZBAS*)
1 53375U 22096F   22244.74998449  .00004892  00000+0  20029-3 0  9998
2 53375  97.4344 146.0466 0003712  87.8817 358.3643 15.24770311  3573
RS23S (SXC3-21 UTMN)    
1 53376U 22096G   22244.81506981  .00004748  00000+0  19424-3 0  9990
2 53376  97.4339 146.1117 0003665  84.2604   2.1707 15.24809725  3582
RS28S (SXC3-214 MIET-A*)
1 53377U 22096H   22244.81439630  .00004704  00000+0  19233-3 0  9997
2 53377  97.4341 146.1114 0003607  83.4892   1.5987 15.24834680  3580
RS26S (KAI-1)           
1 53378U 22096J   22244.87586274  .00004130  00000+0  16914-3 0  9997
2 53378  97.4342 146.1740 0003678  80.8980 344.2037 15.24855449  3594
RS19S (SXC3-219 ISOI)   
1 53381U 22096M   22244.74231659  .00004999  00000+0  20153-3 0  9994
2 53381  97.4339 146.0569 0005075  32.8157  53.9665 15.25276779  3571
RS21S (CUBESX-HSE-2)    
1 53383U 22096P   22244.74188015  .00004612  00000+0  18584-3 0  9990
2 53383  97.4338 146.0578 0005082  33.1421  56.4174 15.25333316  3572
RS30S (SXC3-217 SIREN)  
1 53384U 22096Q   22244.94679619  .00004117  00000+0  16615-3 0  9991
2 53384  97.4342 146.2632 0005147  31.2922 104.5302 15.25348396  3604
RS20S (GEOSCAN-EDELVEIS)
1 53385U 22096R   22244.94374914  .00005506  00000+0  21994-3 0  9991
2 53385  97.4340 146.2655 0005636  29.0866 103.5428 15.25536697  3637
RS33S (SXC3-215 VIZARD) 
1 53386U 22096S   22244.92759953  .00006660  00000+0  26337-3 0  9998
2 53386  97.4336 146.2560 0006381  27.4207  35.6852 15.25789598  3622
